{
    "links": {
        "self": "http://www.neowsapp.com/rest/v1/neo/3841774?api_key=iIulBulltgU6a56xZRHN4H3l9WmuAYTsLGpBGhQ2"
    },
    "id": "3841774",
    "neo_reference_id": "3841774",
    "name": "(2019 JO3)",
    "designation": "2019 JO3",
    "nasa_jpl_url": "http://ssd.jpl.nasa.gov/sbdb.cgi?sstr=3841774",
    "absolute_magnitude_h": 24.5,
    "estimated_diameter": {
        "kilometers": {
            "estimated_diameter_min": 0.0334622374,
            "estimated_diameter_max": 0.0748238376
        },
        "meters": {
            "estimated_diameter_min": 33.4622374455,
            "estimated_diameter_max": 74.8238376074
        },
        "miles": {
            "estimated_diameter_min": 0.0207924639,
            "estimated_diameter_max": 0.0464933628
        },
        "feet": {
            "estimated_diameter_min": 109.7842471007,
            "estimated_diameter_max": 245.4850393757
        }
    },
    "is_potentially_hazardous_asteroid": false,
    "close_approach_data": [
        {
            "close_approach_date": "2019-05-14",
            "close_approach_date_full": "2019-May-14 15:02",
            "epoch_date_close_approach": 1557846120000,
            "relative_velocity": {
                "kilometers_per_second": "10.8281268855",
                "kilometers_per_hour": "38981.2567879548",
                "miles_per_hour": "24221.4370302711"
            },
            "miss_distance": {
                "astronomical": "0.0472990803",
                "lunar": "18.3993422367",
                "kilometers": "7075841.665838961",
                "miles": "4396724.1323452218"
            },
            "orbiting_body": "Earth"
        }
    ],
    "orbital_data": {
        "orbit_id": "1",
        "orbit_determination_date": "2019-05-09 21:49:38",
        "first_observation_date": "2019-05-08",
        "last_observation_date": "2019-05-10",
        "data_arc_in_days": 2,
        "observations_used": 20,
        "orbit_uncertainty": "9",
        "minimum_orbit_intersection": ".0370098",
        "jupiter_tisserand_invariant": "4.362",
        "epoch_osculation": "2458612.5",
        "eccentricity": ".3187811615945702",
        "semi_major_axis": "1.537603685757095",
        "inclination": "18.45235429047345",
        "ascending_node_longitude": "55.49774469920816",
        "orbital_period": "696.4100725376982",
        "perihelion_distance": "1.047444596739356",
        "perihelion_argument": "175.7457374551226",
        "aphelion_distance": "2.027762774774835",
        "perihelion_time": "2458614.707339564593",
        "mean_anomaly": "358.8589449311699",
        "mean_motion": ".5169368080621959",
        "equinox": "J2000",
        "orbit_class": {
            "orbit_class_type": "AMO",
            "orbit_class_description": "Near-Earth asteroid orbits similar to that of 1221 Amor",
            "orbit_class_range": "1.017 AU < q (perihelion) < 1.3 AU"
        }
    },
    "is_sentry_object": false
}